H1 CPF 01  gfz 2021 06 05 12  6562 terrasarx 
H2 0702601  6201 31698    2021 06 05 12 59 42 2021 06 10 00 00 42   120 1 1  0 0 0
H9
10 0 59371  76302.000000  0   -4639480.823   5092589.809    -75704.357
10 0 59371  76422.000000  0   -4460731.870   5160035.652   -977647.955
10 0 59371  76542.000000  0   -4203719.428   5133548.035  -1862395.500
10 0 59371  76662.000000  0   -3874641.499   5012345.278  -2714410.117
10 0 59371  76782.000000  0   -3480953.740   4797429.522  -3518762.182
10 0 59371  76902.000000  0   -3031198.876   4491579.487  -4261393.588
10 0 59371  77022.000000  0   -2534818.822   4099308.613  -4929360.961
10 0 59371  77142.000000  0   -2001954.556   3626791.329  -5511054.508
10 0 59371  77262.000000  0   -1443238.322   3081759.210  -5996392.006
10 0 59371  77382.000000  0    -869581.234   2473367.380  -6376984.011
10 0 59371  77502.000000  0    -291961.558   1812035.718  -6646267.012
10 0 59371  77622.000000  0     278781.657   1109269.191  -6799605.407
10 0 59371  77742.000000  0     832146.703    377459.543  -6834363.246
10 0 59371  77862.000000  0    1358158.551   -370329.228  -6749945.341
10 0 59371  77982.000000  0    1847544.269  -1120589.409  -6547804.798
10 0 59371  78102.000000  0    2291892.341  -1859606.948  -6231420.420
10 0 59371  78222.000000  0    2683795.518  -2573705.772  -5806243.510
10 0 59371  78342.000000  0    3016974.613  -3249496.990  -5279615.419
10 0 59371  78462.000000  0    3286382.276  -3874130.920  -4660651.499
10 0 59371  78582.000000  0    3488281.520  -4435542.406  -3960092.190
10 0 59371  78702.000000  0    3620299.595  -4922686.677  -3190127.430
10 0 59371  78822.000000  0    3681457.394  -5325763.640  -2364193.274
10 0 59371  78942.000000  0    3672170.333  -5636423.616  -1496740.480
10 0 59371  79062.000000  0    3594221.170  -5847947.090   -602981.419
10 0 59371  79182.000000  0    3450704.589  -5955395.711    301381.242
10 0 59371  79302.000000  0    3245943.590  -5955728.326   1200437.039
10 0 59371  79422.000000  0    2985381.916  -5847880.599   2078356.343
10 0 59371  79542.000000  0    2675452.505  -5632802.652   2919679.197
10 0 59371  79662.000000  0    2323426.184  -5313456.074   3709594.511
10 0 59371  79782.000000  0    1937246.034  -4894771.571   4434205.710
10 0 59371  79902.000000  0    1525350.747  -4383567.219   5080778.425
10 0 59371  80022.000000  0    1096492.264  -3788429.957   5637964.625
10 0 59371  80142.000000  0     659549.758  -3119562.280   6096000.218
10 0 59371  80262.000000  0     223345.869  -2388598.999   6446869.712
10 0 59371  80382.000000  0    -203530.161  -1608399.691   6684439.387
10 0 59371  80502.000000  0    -612889.925   -792820.277   6804558.800
10 0 59371  80622.000000  0    -997101.669     43534.596   6805129.970
10 0 59371  80742.000000  0   -1349231.802    885573.480   6686141.591
10 0 59371  80862.000000  0   -1663169.570   1717989.811   6449668.896
10 0 59371  80982.000000  0   -1933733.349   2525539.245   6099839.900
10 0 59371  81102.000000  0   -2156756.908   3293319.113   5642767.696
10 0 59371  81222.000000  0   -2329153.950   4007045.057   5086449.575
10 0 59371  81342.000000  0   -2448961.053   4653321.370   4440634.213
10 0 59371  81462.000000  0   -2515357.076   5219899.436   3716655.902
10 0 59371  81582.000000  0   -2528658.570   5695918.319   2927238.183
10 0 59371  81702.000000  0   -2490290.722   6072121.076   2086269.894
10 0 59371  81822.000000  0   -2402734.971   6341042.662   1208558.336
10 0 59371  81942.000000  0   -2269453.697   6497164.402    309563.230
10 0 59371  82062.000000  0   -2094794.182   6537030.866   -594882.938
10 0 59371  82182.000000  0   -1883874.533   6459326.499  -1488863.057
10 0 59371  82302.000000  0   -1642452.988   6264907.255  -2356667.537
10 0 59371  82422.000000  0   -1376784.453   5956784.269  -3183077.382
10 0 59371  82542.000000  0   -1093470.109   5540067.767  -3953632.788
10 0 59371  82662.000000  0    -799303.510   5021871.261  -4654886.300
10 0 59371  82782.000000  0    -501116.354   4411177.952  -5274633.300
10 0 59371  82902.000000  0    -205627.277   3718674.882  -5802117.801
10 0 59371  83022.000000  0      80703.184   2956556.528  -6228210.581
10 0 59371  83142.000000  0     351807.659   2138302.928  -6545555.680
10 0 59371  83262.000000  0     602134.515   1278439.533  -6748685.665
10 0 59371  83382.000000  0     826756.889    392280.852  -6834106.913
10 0 59371  83502.000000  0    1021465.910   -504338.195  -6800352.953
10 0 59371  83622.000000  0    1182846.823  -1395339.682  -6648005.871
10 0 59371  83742.000000  0    1308337.164  -2264682.909  -6379686.003
10 0 59371  83862.000000  0    1396267.193  -3096645.425  -6000012.908
10 0 59371  83982.000000  0    1445881.408  -3876104.079  -5515536.058
10 0 59371  84102.000000  0    1457339.830  -4588810.542  -4934631.616
10 0 59371  84222.000000  0    1431700.757  -5221653.357  -4267368.125
10 0 59371  84342.000000  0    1370883.746  -5762905.841  -3525343.589
10 0 59371  84462.000000  0    1277612.770  -6202453.263  -2721491.925
10 0 59371  84582.000000  0    1155342.042  -6531993.179  -1869862.820
10 0 59371  84702.000000  0    1008165.324  -6745204.669   -985377.592
10 0 59371  84822.000000  0     840709.563  -6837880.721    -83565.045
10 0 59371  84942.000000  0     658016.504  -6808019.416    819716.685
10 0 59371  85062.000000  0     465415.084  -6655872.279   1708566.396
10 0 59371  85182.000000  0     268387.660  -6383947.638   2567329.304
10 0 59371  85302.000000  0      72433.508  -5996966.822   3380882.875
10 0 59371  85422.000000  0    -117067.464  -5501774.294   4134909.672
10 0 59371  85542.000000  0    -294986.605  -4907208.317   4816152.251
10 0 59371  85662.000000  0    -456570.594  -4223933.404   5412647.683
10 0 59371  85782.000000  0    -597554.602  -3464239.394   5913936.211
10 0 59371  85902.000000  0    -714262.697  -2641810.220   6311241.252
10 0 59371  86022.000000  0    -803693.076  -1771469.984   6597615.283
10 0 59371  86142.000000  0    -863586.771   -868913.232   6768054.652
10 0 59371  86262.000000  0    -892479.177     49579.584   6819583.102
10 0 59371  86382.000000  0    -889733.138    967436.317   6751300.712
10 0 59372    102.000000  0    -855551.947   1868091.742   6564398.601
10 0 59372    222.000000  0    -790972.862   2735285.906   6262139.335
10 0 59372    342.000000  0    -697841.714   3553357.820   5849803.759
10 0 59372    462.000000  0    -578768.917   4307530.678   5334603.852
10 0 59372    582.000000  0    -437067.117   4984182.638   4725562.660
10 0 59372    702.000000  0    -276672.101   5571101.078   4033362.301
10 0 59372    822.000000  0    -102047.449   6057710.263   3270159.111
10 0 59372    942.000000  0      81922.833   6435272.393   2449375.697
10 0 59372   1062.000000  0     270053.985   6697058.769   1585460.847
10 0 59372   1182.000000  0     456989.609   6838475.702    693628.994
10 0 59372   1302.000000  0     637335.671   6857150.371   -210414.213
10 0 59372   1422.000000  0     805796.531   6752972.232  -1110757.354
10 0 59372   1542.000000  0     957308.055   6528087.881  -1991572.033
10 0 59372   1662.000000  0    1087165.047   6186851.643  -2837398.233
10 0 59372   1782.000000  0    1191140.708   5735732.739  -3633420.863
10 0 59372   1902.000000  0    1265595.169   5183181.604  -4365731.598
10 0 59372   2022.000000  0    1307570.294   4539459.145  -5021570.540
10 0 59372   2142.000000  0    1314868.581   3816434.127  -5589542.656
10 0 59372   2262.000000  0    1286114.384   3027355.338  -6059807.264
10 0 59372   2382.000000  0    1220796.725   2186601.594  -6424238.215
10 0 59372   2502.000000  0    1119292.890   1309417.073  -6676551.787
10 0 59372   2622.000000  0     982873.146    411636.835  -6812405.275
10 0 59372   2742.000000  0     813686.266   -490595.318  -6829463.884
10 0 59372   2862.000000  0     614725.876  -1381111.491  -6727435.431
10 0 59372   2982.000000  0     389778.627  -2244001.321  -6508073.283
10 0 59372   3102.000000  0     143355.139  -3063888.278  -6175151.043
10 0 59372   3222.000000  0    -119397.037  -3826200.772  -5734405.802
10 0 59372   3342.000000  0    -392795.424  -4517429.741  -5193448.157
10 0 59372   3462.000000  0    -670738.700  -5125370.466  -4561642.548
10 0 59372   3582.000000  0    -946835.843  -5639344.818  -3849956.463
10 0 59372   3702.000000  0   -1214545.485  -6050398.532  -3070779.326
10 0 59372   3822.000000  0   -1467322.371  -6351468.631  -2237713.654
10 0 59372   3942.000000  0   -1698768.100  -6537517.743  -1365341.127
10 0 59372   4062.000000  0   -1902782.152  -6605630.553   -468966.142
10 0 59372   4182.000000  0   -2073709.511  -6555068.564    435657.495
10 0 59372   4302.000000  0   -2206481.375  -6387281.181   1332610.726
10 0 59372   4422.000000  0   -2296744.907  -6105872.590   2206098.206
10 0 59372   4542.000000  0   -2340978.396  -5716524.828   3040735.684
10 0 59372   4662.000000  0   -2336588.442  -5226878.911   3821828.771
10 0 59372   4782.000000  0   -2281987.087  -4646377.884   4535636.678
10 0 59372   4902.000000  0   -2176647.554  -3986076.887   5169616.096
10 0 59372   5022.000000  0   -2021137.761  -3258423.867   5712642.106
10 0 59372   5142.000000  0   -1817129.458  -2477015.584   6155200.021
10 0 59372   5262.000000  0   -1567383.365  -1656337.739   6489546.280
10 0 59372   5382.000000  0   -1275711.998   -811492.718   6709838.560
10 0 59372   5502.000000  0    -946921.248     42081.478   6812231.265
10 0 59372   5622.000000  0    -586731.541    888892.600   6794937.686
10 0 59372   5742.000000  0    -201678.277   1713674.700   6658260.128
10 0 59372   5862.000000  0     201006.737   2501663.126   6404584.988
10 0 59372   5982.000000  0     613530.528   3238858.648   6038343.274
10 0 59372   6102.000000  0    1027688.203   3912277.494   5565938.286
10 0 59372   6222.000000  0    1435024.446   4510183.861   4995639.435
10 0 59372   6342.000000  0    1827004.667   5022300.628   4337443.501
99
